start=new Date('2022-11-25T00:00:00.000Z').valueOf();
sats=[{"MEAN_MOTION_DOT":"-0.00005260","CLASSIFICATION_TYPE":"U","REV_AT_EPOCH":"12407","SEMIMAJOR_AXIS":"6925.283","OBJECT_TYPE":"PAYLOAD","PERIOD":"95.591","MEAN_MOTION":"15.06421249","OBJECT_ID":"2020-062AQ","LAUNCH_DATE":"2020-09-03","FILE":"3669083","TLE_LINE2":"2 46363  53.0567 323.0911 0001762  61.1930 298.9236 15.06421249124072","SITE":"AFETR","APOAPSIS":"548.369","INCLINATION":"53.0567","PERIAPSIS":"545.928","ELEMENT_SET_NO":"999","TLE_LINE1":"1 46363U 20062AQ  22328.69181715 -.00005260  00000-0 -33424-3 0  9991","ARG_OF_PERICENTER":"61.1930","MEAN_ANOMALY":"298.9236","TIME_SYSTEM":"UTC","MEAN_ELEMENT_THEORY":"SGP4","RA_OF_ASC_NODE":"323.0911","CENTER_NAME":"EARTH","BSTAR":"-0.00033424000000","RCS_SIZE":"LARGE","EPOCH":"2022-11-24T16:36:13.001760","GP_ID":"218697293","DECAY_DATE":null,"NORAD_CAT_ID":"46363","EPHEMERIS_TYPE":"0","COUNTRY_CODE":"US","OBJECT_NAME":"STARLINK-1739","ECCENTRICITY":"0.00017620","MEAN_MOTION_DDOT":"0.0000000000000","REF_FRAME":"TEME"},{"NORAD_CAT_ID":"46364","REF_FRAME":"TEME","MEAN_MOTION_DDOT":"0.0000000000000","ECCENTRICITY":"0.00015510","OBJECT_NAME":"STARLINK-1763","EPHEMERIS_TYPE":"0","COUNTRY_CODE":"US","EPOCH":"2022-11-24T08:42:37.547712","CENTER_NAME":"EARTH","RCS_SIZE":"LARGE","BSTAR":"0.00005966500000","RA_OF_ASC_NODE":"305.0844","DECAY_DATE":null,"GP_ID":"218697439","PERIAPSIS":"546.136","APOAPSIS":"548.284","SITE":"AFETR","INCLINATION":"53.0565","TLE_LINE2":"2 46364  53.0565 305.0844 0001551  71.3781 288.7377 15.06401080124321","TIME_SYSTEM":"UTC","MEAN_ELEMENT_THEORY":"SGP4","ARG_OF_PERICENTER":"71.3781","MEAN_ANOMALY":"288.7377","ELEMENT_SET_NO":"999","TLE_LINE1":"1 46364U 20062AR  22328.36293458  .00000607  00000-0  59665-4 0  9998","CLASSIFICATION_TYPE":"U","REV_AT_EPOCH":"12432","SEMIMAJOR_AXIS":"6925.345","MEAN_MOTION_DOT":"0.00000607","FILE":"3669085","PERIOD":"95.592","MEAN_MOTION":"15.06401080","OBJECT_ID":"2020-062AR","LAUNCH_DATE":"2020-09-03","OBJECT_TYPE":"PAYLOAD"},{"FILE":"3669022","MEAN_MOTION":"15.06394396","PERIOD":"95.592","LAUNCH_DATE":"2020-09-03","OBJECT_ID":"2020-062AS","OBJECT_TYPE":"PAYLOAD","REV_AT_EPOCH":"12385","CLASSIFICATION_TYPE":"U","SEMIMAJOR_AXIS":"6925.366","MEAN_MOTION_DOT":"0.00000132","TIME_SYSTEM":"UTC","MEAN_ELEMENT_THEORY":"SGP4","ARG_OF_PERICENTER":"48.8257","MEAN_ANOMALY":"311.2896","ELEMENT_SET_NO":"999","TLE_LINE1":"1 46365U 20062AS  22328.27257509  .00000132  00000-0  27772-4 0  9993","PERIAPSIS":"545.909","APOAPSIS":"548.553","SITE":"AFETR","INCLINATION":"53.0556","TLE_LINE2":"2 46365  53.0556 324.9929 0001909  48.8257 311.2896 15.06394396123856","DECAY_DATE":null,"GP_ID":"218664128","EPOCH":"2022-11-24T06:32:30.487776","CENTER_NAME":"EARTH","RCS_SIZE":"LARGE","BSTAR":"0.00002777200000","RA_OF_ASC_NODE":"324.9929","MEAN_MOTION_DDOT":"0.0000000000000","REF_FRAME":"TEME","ECCENTRICITY":"0.00019090","OBJECT_NAME":"STARLINK-1550","COUNTRY_CODE":"US","EPHEMERIS_TYPE":"0","NORAD_CAT_ID":"46365"},{"OBJECT_NAME":"STARLINK-1651","EPHEMERIS_TYPE":"0","COUNTRY_CODE":"US","REF_FRAME":"TEME","MEAN_MOTION_DDOT":"0.0000000000000","ECCENTRICITY":"0.00018230","NORAD_CAT_ID":"46366","DECAY_DATE":null,"GP_ID":"218720940","CENTER_NAME":"EARTH","BSTAR":"0.00006131200000","RCS_SIZE":"LARGE","RA_OF_ASC_NODE":"322.9644","EPOCH":"2022-11-24T17:25:21.463968","ELEMENT_SET_NO":"999","TLE_LINE1":"1 46366U 20062AT  22328.72594287  .00000632  00000-0  61312-4 0  9994","TIME_SYSTEM":"UTC","MEAN_ELEMENT_THEORY":"SGP4","ARG_OF_PERICENTER":"64.6599","MEAN_ANOMALY":"295.4578","APOAPSIS":"548.477","SITE":"AFETR","INCLINATION":"53.0554","TLE_LINE2":"2 46366  53.0554 322.9644 0001823  64.6599 295.4578 15.06399695123922","PERIAPSIS":"545.952","PERIOD":"95.592","MEAN_MOTION":"15.06399695","LAUNCH_DATE":"2020-09-03","OBJECT_ID":"2020-062AT","OBJECT_TYPE":"PAYLOAD","FILE":"3669335","MEAN_MOTION_DOT":"0.00000632","CLASSIFICATION_TYPE":"U","REV_AT_EPOCH":"12392","SEMIMAJOR_AXIS":"6925.349"},{"EPOCH":"2022-11-24T18:58:52.438944","RA_OF_ASC_NODE":"347.6430","CENTER_NAME":"EARTH","RCS_SIZE":"LARGE","BSTAR":"0.00017358000000","GP_ID":"218721684","DECAY_DATE":null,"NORAD_CAT_ID":"46368","ECCENTRICITY":"0.00016150","REF_FRAME":"TEME","MEAN_MOTION_DDOT":"0.0000000000000","COUNTRY_CODE":"US","EPHEMERIS_TYPE":"0","OBJECT_NAME":"STARLINK-1658","REV_AT_EPOCH":"12359","CLASSIFICATION_TYPE":"U","SEMIMAJOR_AXIS":"6925.348","MEAN_MOTION_DOT":"0.00002305","FILE":"3669335","OBJECT_TYPE":"PAYLOAD","PERIOD":"95.592","MEAN_MOTION":"15.06400227","LAUNCH_DATE":"2020-09-03","OBJECT_ID":"2020-062AV","PERIAPSIS":"546.094","TLE_LINE2":"2 46368  53.0557 347.6430 0001615  60.7756 299.3395 15.06400227123592","SITE":"AFETR","APOAPSIS":"548.331","INCLINATION":"53.0557","ARG_OF_PERICENTER":"60.7756","MEAN_ANOMALY":"299.3395","TIME_SYSTEM":"UTC","MEAN_ELEMENT_THEORY":"SGP4","ELEMENT_SET_NO":"999","TLE_LINE1":"1 46368U 20062AV  22328.79088471  .00002305  00000-0  17358-3 0  9995"},{"OBJECT_ID":"2020-062AX","LAUNCH_DATE":"2020-09-03","MEAN_MOTION":"15.06396864","PERIOD":"95.592","OBJECT_TYPE":"PAYLOAD","FILE":"3669335","MEAN_MOTION_DOT":"-0.00000694","SEMIMAJOR_AXIS":"6925.358","REV_AT_EPOCH":"12358","CLASSIFICATION_TYPE":"U","TLE_LINE1":"1 46370U 20062AX  22328.75497389 -.00000694  00000-0 -27692-4 0  9990","ELEMENT_SET_NO":"999","MEAN_ELEMENT_THEORY":"SGP4","TIME_SYSTEM":"UTC","MEAN_ANOMALY":"307.7839","ARG_OF_PERICENTER":"52.3310","INCLINATION":"53.0557","APOAPSIS":"548.443","SITE":"AFETR","TLE_LINE2":"2 46370  53.0557 347.8231 0001761  52.3310 307.7839 15.06396864123588","PERIAPSIS":"546.004","DECAY_DATE":null,"GP_ID":"218719941","BSTAR":"-0.00002769200000","RCS_SIZE":"LARGE","CENTER_NAME":"EARTH","RA_OF_ASC_NODE":"347.8231","EPOCH":"2022-11-24T18:07:09.744096","OBJECT_NAME":"STARLINK-1670","EPHEMERIS_TYPE":"0","COUNTRY_CODE":"US","REF_FRAME":"TEME","MEAN_MOTION_DDOT":"0.0000000000000","ECCENTRICITY":"0.00017610","NORAD_CAT_ID":"46370"},{"PERIAPSIS":"546.181","TLE_LINE2":"2 46371  53.0555 347.8716 0001473  65.4856 294.6286 15.06404215123585","SITE":"AFETR","APOAPSIS":"548.221","INCLINATION":"53.0555","ARG_OF_PERICENTER":"65.4856","MEAN_ANOMALY":"294.6286","TIME_SYSTEM":"UTC","MEAN_ELEMENT_THEORY":"SGP4","ELEMENT_SET_NO":"999","TLE_LINE1":"1 46371U 20062AY  22328.74759639  .00001216  00000-0  10049-3 0  9995","REV_AT_EPOCH":"12358","CLASSIFICATION_TYPE":"U","SEMIMAJOR_AXIS":"6925.336","MEAN_MOTION_DOT":"0.00001216","FILE":"3669335","OBJECT_TYPE":"PAYLOAD","MEAN_MOTION":"15.06404215","PERIOD":"95.592","LAUNCH_DATE":"2020-09-03","OBJECT_ID":"2020-062AY","NORAD_CAT_ID":"46371","ECCENTRICITY":"0.00014730","REF_FRAME":"TEME","MEAN_MOTION_DDOT":"0.0000000000000","COUNTRY_CODE":"US","EPHEMERIS_TYPE":"0","OBJECT_NAME":"STARLINK-1688","EPOCH":"2022-11-24T17:56:32.328096","RA_OF_ASC_NODE":"347.8716","CENTER_NAME":"EARTH","RCS_SIZE":"LARGE","BSTAR":"0.00010049000000","GP_ID":"218720191","DECAY_DATE":null},{"ECCENTRICITY":"0.00015990","REF_FRAME":"TEME","MEAN_MOTION_DDOT":"0.0000000000000","COUNTRY_CODE":"US","EPHEMERIS_TYPE":"0","OBJECT_NAME":"STARLINK-1689","NORAD_CAT_ID":"46372","GP_ID":"218721440","DECAY_DATE":null,"EPOCH":"2022-11-24T19:45:20.832192","RA_OF_ASC_NODE":"7.5148","BSTAR":"0.00006510000000","RCS_SIZE":"LARGE","CENTER_NAME":"EARTH","MEAN_ANOMALY":"298.6125","ARG_OF_PERICENTER":"61.5025","MEAN_ELEMENT_THEORY":"SGP4","TIME_SYSTEM":"UTC","TLE_LINE1":"1 46372U 20062AZ  22328.82315778  .00000688  00000-0  65100-4 0  9998","ELEMENT_SET_NO":"999","PERIAPSIS":"546.092","TLE_LINE2":"2 46372  53.0567   7.5148 0001599  61.5025 298.6125 15.06404697123313","INCLINATION":"53.0567","SITE":"AFETR","APOAPSIS":"548.307","FILE":"3669335","OBJECT_TYPE":"PAYLOAD","LAUNCH_DATE":"2020-09-03","OBJECT_ID":"2020-062AZ","MEAN_MOTION":"15.06404697","PERIOD":"95.592","SEMIMAJOR_AXIS":"6925.334","CLASSIFICATION_TYPE":"U","REV_AT_EPOCH":"12331","MEAN_MOTION_DOT":"0.00000688"},{"DECAY_DATE":null,"GP_ID":"218721185","RCS_SIZE":"LARGE","BSTAR":"0.00007902200000","CENTER_NAME":"EARTH","RA_OF_ASC_NODE":"298.3493","EPOCH":"2022-11-24T15:18:38.216448","OBJECT_NAME":"STARLINK-1711","COUNTRY_CODE":"US","EPHEMERIS_TYPE":"0","REF_FRAME":"TEME","MEAN_MOTION_DDOT":"0.0000000000000","ECCENTRICITY":"0.00017730","NORAD_CAT_ID":"46374","OBJECT_ID":"2020-062BB","LAUNCH_DATE":"2020-09-03","PERIOD":"95.592","MEAN_MOTION":"15.06403861","OBJECT_TYPE":"PAYLOAD","FILE":"3669335","MEAN_MOTION_DOT":"0.00000896","SEMIMAJOR_AXIS":"6925.337","CLASSIFICATION_TYPE":"U","REV_AT_EPOCH":"12426","TLE_LINE1":"1 46374U 20062BB  22328.63794232  .00000896  00000-0  79022-4 0  9994","ELEMENT_SET_NO":"999","MEAN_ELEMENT_THEORY":"SGP4","TIME_SYSTEM":"UTC","MEAN_ANOMALY":"291.4724","ARG_OF_PERICENTER":"68.6455","INCLINATION":"53.0554","SITE":"AFETR","APOAPSIS":"548.430","TLE_LINE2":"2 46374  53.0554 298.3493 0001773  68.6455 291.4724 15.06403861124266","PERIAPSIS":"545.974"},{"SEMIMAJOR_AXIS":"6925.335","REV_AT_EPOCH":"12387","CLASSIFICATION_TYPE":"U","MEAN_MOTION_DOT":"0.00001729","FILE":"3669022","OBJECT_TYPE":"PAYLOAD","LAUNCH_DATE":"2020-09-03","OBJECT_ID":"2020-062BC","PERIOD":"95.592","MEAN_MOTION":"15.06404447","PERIAPSIS":"545.822","TLE_LINE2":"2 46375  53.0561 324.4671 0001989  56.1360 303.9818 15.06404447123870","INCLINATION":"53.0561","SITE":"AFETR","APOAPSIS":"548.577","MEAN_ANOMALY":"303.9818","ARG_OF_PERICENTER":"56.1360","MEAN_ELEMENT_THEORY":"SGP4","TIME_SYSTEM":"UTC","TLE_LINE1":"1 46375U 20062BC  22328.38683700  .00001729  00000-0  13492-3 0  9998","ELEMENT_SET_NO":"999","EPOCH":"2022-11-24T09:17:02.716800","RA_OF_ASC_NODE":"324.4671","RCS_SIZE":"LARGE","BSTAR":"0.00013492000000","CENTER_NAME":"EARTH","GP_ID":"218663378","DECAY_DATE":null,"NORAD_CAT_ID":"46375","ECCENTRICITY":"0.00019890","REF_FRAME":"TEME","MEAN_MOTION_DDOT":"0.0000000000000","COUNTRY_CODE":"US","EPHEMERIS_TYPE":"0","OBJECT_NAME":"STARLINK-1724"}];
